[{"OBJECT_NAME":"FLOCK 4H-7","OBJECT_ID":"2025-276AW","EPOCH":"2026-03-09T22:43:30.994464","MEAN_MOTION":15.18760022,"ECCENTRICITY":0.00028609,"INCLINATION":97.4252,"RA_OF_ASC_NODE":144.168,"ARG_OF_PERICENTER":46.1134,"MEAN_ANOMALY":314.0336,"EPHEMERIS_TYPE":0,"CLASSIFICATION_TYPE":"U","NORAD_CAT_ID":66710,"ELEMENT_SET_NO":999,"REV_AT_EPOCH":1535,"BSTAR":0.00044917791,"MEAN_MOTION_DOT":9.273e-5,"MEAN_MOTION_DDOT":0},{"OBJECT_NAME":"STARLINK-35685","OBJECT_ID":"2025-299AC","EPOCH":"2026-03-09T22:00:01.999584","MEAN_MOTION":15.36668663,"ECCENTRICITY":0.00013152,"INCLINATION":43.0009,"RA_OF_ASC_NODE":167.5493,"ARG_OF_PERICENTER":263.612,"MEAN_ANOMALY":69.38,"EPHEMERIS_TYPE":0,"CLASSIFICATION_TYPE":"U","NORAD_CAT_ID":67128,"ELEMENT_SET_NO":999,"REV_AT_EPOCH":589,"BSTAR":-0.062393317,"MEAN_MOTION_DOT":-0.02027844,"MEAN_MOTION_DDOT":0}]
